{
"type": "FeatureCollection",
"name": "correct_path",
"crs": { "type": "name", "properties": { "name": "urn:ogc:def:crs:OGC:1.3:CRS84" } },
"features": [
{ "type": "Feature", "properties": { "id": 1, "id1": 1 }, "geometry": { "type": "LineString", "coordinates": [ [ 56.0443935, 54.788929 ], [ 56.0446221, 54.7887534 ], [ 56.044879, 54.7887103 ], [ 56.0450734, 54.7887101 ] ] } },
{ "type": "Feature", "properties": { "id": 1, "id1": 2 }, "geometry": { "type": "LineString", "coordinates": [ [ 56.0450734, 54.7887101 ], [ 56.0456885, 54.7887779 ], [ 56.0462194, 54.7888476 ] ] } },
{ "type": "Feature", "properties": { "id": 1, "id1": 3 }, "geometry": { "type": "LineString", "coordinates": [ [ 56.0461525, 54.7901839 ], [ 56.0459486, 54.79032 ], [ 56.045718, 54.7905736 ], [ 56.0456697, 54.7907159 ], [ 56.0454731, 54.7908302 ] ] } },
{ "type": "Feature", "properties": { "id": 1, "id1": 4 }, "geometry": { "type": "LineString", "coordinates": [ [ 56.0460291, 54.7894509 ], [ 56.0462651, 54.7894663 ], [ 56.0465387, 54.7895344 ], [ 56.0466836, 54.7896024 ], [ 56.0468767, 54.7896612 ], [ 56.0473416, 54.789663 ] ] } },
{ "type": "Feature", "properties": { "id": 1, "id1": 5 }, "geometry": { "type": "LineString", "coordinates": [ [ 56.0461525, 54.7901839 ], [ 56.046072, 54.7901004 ], [ 56.0460023, 54.7898993 ], [ 56.0459004, 54.7897447 ], [ 56.0459218, 54.789587 ], [ 56.0460291, 54.7894509 ] ] } },
{ "type": "Feature", "properties": { "id": 1, "id1": 6 }, "geometry": { "type": "LineString", "coordinates": [ [ 56.0460291, 54.7894509 ], [ 56.0461203, 54.789355 ], [ 56.0461632, 54.789222 ], [ 56.0462008, 54.7889869 ], [ 56.0462194, 54.7888476 ] ] } },
{ "type": "Feature", "properties": { "id": 1, "id1": 7 }, "geometry": { "type": "LineString", "coordinates": [ [ 56.0466975, 54.7903001 ], [ 56.0464744, 54.7902241 ], [ 56.0461525, 54.7901839 ] ] } },
{ "type": "Feature", "properties": { "id": 1, "id1": 8 }, "geometry": { "type": "LineString", "coordinates": [ [ 56.0462194, 54.7888476 ], [ 56.0465386, 54.7888895 ], [ 56.0471744, 54.7889492 ], [ 56.0474785, 54.7889612 ] ] } },
{ "type": "Feature", "properties": { "id": 1, "id1": 9 }, "geometry": { "type": "LineString", "coordinates": [ [ 56.0466975, 54.7903001 ], [ 56.0464409, 54.790799 ] ] } },
{ "type": "Feature", "properties": { "id": 1, "id1": 10 }, "geometry": { "type": "LineString", "coordinates": [ [ 56.0473416, 54.789663 ], [ 56.0470984, 54.790065 ], [ 56.0469463, 54.7901925 ], [ 56.0466975, 54.7903001 ] ] } },
{ "type": "Feature", "properties": { "id": 1, "id1": 11 }, "geometry": { "type": "LineString", "coordinates": [ [ 56.0473416, 54.789663 ], [ 56.047714, 54.789732 ], [ 56.0481285, 54.7898523 ] ] } },
{ "type": "Feature", "properties": { "id": 1, "id1": 12 }, "geometry": { "type": "LineString", "coordinates": [ [ 56.0474094, 54.7895509 ], [ 56.0473416, 54.789663 ] ] } },
{ "type": "Feature", "properties": { "id": 1, "id1": 13 }, "geometry": { "type": "LineString", "coordinates": [ [ 56.0474785, 54.7889612 ], [ 56.0474094, 54.7895509 ] ] } },
{ "type": "Feature", "properties": { "id": 1, "id1": 14 }, "geometry": { "type": "LineString", "coordinates": [ [ 56.0474094, 54.7895509 ], [ 56.047604077416544, 54.789486688126601 ] ] } },
{ "type": "Feature", "properties": { "id": 1, "id1": 15 }, "geometry": { "type": "LineString", "coordinates": [ [ 56.047604077416544, 54.789486688126601 ], [ 56.048494129045444, 54.789493984637332 ] ] } },
{ "type": "Feature", "properties": { "id": 1, "id1": 16 }, "geometry": { "type": "LineString", "coordinates": [ [ 56.048494129045444, 54.789493984637332 ], [ 56.048603832084673, 54.78900656558524 ] ] } },
{ "type": "Feature", "properties": { "id": 1, "id1": 17 }, "geometry": { "type": "LineString", "coordinates": [ [ 56.0474785, 54.7889612 ], [ 56.0480383, 54.789005 ], [ 56.048603832084673, 54.78900656558524 ] ] } },
{ "type": "Feature", "properties": { "id": 1, "id1": 18 }, "geometry": { "type": "LineString", "coordinates": [ [ 56.048603832084673, 54.78900656558524 ], [ 56.048833, 54.7890072 ], [ 56.0496217, 54.789129 ] ] } },
{ "type": "Feature", "properties": { "id": 1, "id1": 19 }, "geometry": { "type": "LineString", "coordinates": [ [ 56.0476165, 54.7881391 ], [ 56.0474785, 54.7889612 ] ] } },
{ "type": "Feature", "properties": { "id": 1, "id1": 20 }, "geometry": { "type": "LineString", "coordinates": [ [ 56.0476165, 54.7881391 ], [ 56.0487489, 54.7882167 ], [ 56.0494302, 54.7882971 ], [ 56.0497799, 54.7883276 ] ] } },
{ "type": "Feature", "properties": { "id": 1, "id1": 21 }, "geometry": { "type": "LineString", "coordinates": [ [ 56.0478522, 54.7867355 ], [ 56.0478255, 54.7868743 ] ] } },
{ "type": "Feature", "properties": { "id": 1, "id1": 22 }, "geometry": { "type": "LineString", "coordinates": [ [ 56.0478255, 54.7868743 ], [ 56.047685005387848, 54.787724527681569 ] ] } },
{ "type": "Feature", "properties": { "id": 1, "id1": 23 }, "geometry": { "type": "LineString", "coordinates": [ [ 56.047685005387848, 54.787724527681569 ], [ 56.0476165, 54.7881391 ] ] } },
{ "type": "Feature", "properties": { "id": 1, "id1": 24 }, "geometry": { "type": "LineString", "coordinates": [ [ 56.049812655813135, 54.787918639110345 ], [ 56.047685006088912, 54.787724527797415 ] ] } },
{ "type": "Feature", "properties": { "id": 1, "id1": 25 }, "geometry": { "type": "LineString", "coordinates": [ [ 56.0478054, 54.791076699999984 ], [ 56.0479313, 54.7908934 ], [ 56.0479761, 54.7906996 ], [ 56.0479851, 54.7904697 ], [ 56.048012, 54.7902114 ], [ 56.0481061, 54.7899194 ], [ 56.0481285, 54.7898523 ] ] } },
{ "type": "Feature", "properties": { "id": 1, "id1": 26 }, "geometry": { "type": "LineString", "coordinates": [ [ 56.0481285, 54.7898523 ], [ 56.0485126, 54.789907 ], [ 56.0493112, 54.7899554 ] ] } },
{ "type": "Feature", "properties": { "id": 1, "id1": 27 }, "geometry": { "type": "LineString", "coordinates": [ [ 56.0493112, 54.7899554 ], [ 56.049488599999989, 54.7900093 ] ] } },
{ "type": "Feature", "properties": { "id": 1, "id1": 28 }, "geometry": { "type": "LineString", "coordinates": [ [ 56.0493112, 54.7899554 ], [ 56.0493672, 54.7898235 ], [ 56.049554, 54.7897239 ] ] } },
{ "type": "Feature", "properties": { "id": 1, "id1": 29 }, "geometry": { "type": "LineString", "coordinates": [ [ 56.049488599999989, 54.7900093 ], [ 56.0494793, 54.7901708 ], [ 56.0494746, 54.790432 ], [ 56.049388, 54.7907425 ] ] } },
{ "type": "Feature", "properties": { "id": 1, "id1": 30 }, "geometry": { "type": "LineString", "coordinates": [ [ 56.049388, 54.7907425 ], [ 56.0493551, 54.7908737 ] ] } },
{ "type": "Feature", "properties": { "id": 1, "id1": 31 }, "geometry": { "type": "LineString", "coordinates": [ [ 56.049488599999989, 54.7900093 ], [ 56.049554, 54.7897239 ] ] } },
{ "type": "Feature", "properties": { "id": 1, "id1": 32 }, "geometry": { "type": "LineString", "coordinates": [ [ 56.049554, 54.7897239 ], [ 56.0496194, 54.7895812 ] ] } },
{ "type": "Feature", "properties": { "id": 1, "id1": 33 }, "geometry": { "type": "LineString", "coordinates": [ [ 56.0496194, 54.7895812 ], [ 56.049582, 54.7894331 ], [ 56.0496217, 54.789129 ] ] } },
{ "type": "Feature", "properties": { "id": 1, "id1": 34 }, "geometry": { "type": "LineString", "coordinates": [ [ 56.0496194, 54.7895812 ], [ 56.04996629974918, 54.789549924509153 ] ] } },
{ "type": "Feature", "properties": { "id": 1, "id1": 35 }, "geometry": { "type": "LineString", "coordinates": [ [ 56.04996629974918, 54.789549924509153 ], [ 56.050455617232366, 54.789520738498737 ] ] } },
{ "type": "Feature", "properties": { "id": 1, "id1": 36 }, "geometry": { "type": "LineString", "coordinates": [ [ 56.050455617232366, 54.789520738498737 ], [ 56.05064965692398, 54.789457502070569 ] ] } },
{ "type": "Feature", "properties": { "id": 1, "id1": 37 }, "geometry": { "type": "LineString", "coordinates": [ [ 56.05064965692398, 54.789457502070569 ], [ 56.050912730360743, 54.788495762029626 ] ] } },
{ "type": "Feature", "properties": { "id": 1, "id1": 38 }, "geometry": { "type": "LineString", "coordinates": [ [ 56.0496217, 54.789129 ], [ 56.0496939, 54.7888879 ], [ 56.0497799, 54.7883276 ] ] } },
{ "type": "Feature", "properties": { "id": 1, "id1": 39 }, "geometry": { "type": "LineString", "coordinates": [ [ 56.0497799, 54.7883276 ], [ 56.050912730391346, 54.788495761823448 ] ] } },
{ "type": "Feature", "properties": { "id": 1, "id1": 40 }, "geometry": { "type": "LineString", "coordinates": [ [ 56.050912730391346, 54.788495761823448 ], [ 56.0515954, 54.7885971 ], [ 56.051778640124297, 54.78847187832433 ] ] } },
{ "type": "Feature", "properties": { "id": 1, "id1": 41 }, "geometry": { "type": "LineString", "coordinates": [ [ 56.0497799, 54.7883276 ], [ 56.0497868, 54.7879968 ], [ 56.049812655813135, 54.787918639110345 ] ] } },
{ "type": "Feature", "properties": { "id": 1, "id1": 42 }, "geometry": { "type": "LineString", "coordinates": [ [ 56.049812655997329, 54.787918639127149 ], [ 56.049812655813135, 54.787918639110345 ] ] } },
{ "type": "Feature", "properties": { "id": 1, "id1": 43 }, "geometry": { "type": "LineString", "coordinates": [ [ 56.049812655813135, 54.787918639110345 ], [ 56.050009, 54.7873251 ] ] } },
{ "type": "Feature", "properties": { "id": 1, "id1": 44 }, "geometry": { "type": "LineString", "coordinates": [ [ 56.050683402957311, 54.788061411116971 ], [ 56.050219394999118, 54.787978714321824 ] ] } },
{ "type": "Feature", "properties": { "id": 1, "id1": 45 }, "geometry": { "type": "LineString", "coordinates": [ [ 56.050219394999118, 54.787978714321824 ], [ 56.050345942624077, 54.787623602631975 ] ] } },
{ "type": "Feature", "properties": { "id": 1, "id1": 46 }, "geometry": { "type": "LineString", "coordinates": [ [ 56.050345942624077, 54.787623602631975 ], [ 56.050009, 54.7873251 ] ] } },
{ "type": "Feature", "properties": { "id": 1, "id1": 47 }, "geometry": { "type": "LineString", "coordinates": [ [ 56.050009, 54.7873251 ], [ 56.0500292, 54.7872032 ] ] } },
{ "type": "Feature", "properties": { "id": 1, "id1": 48 }, "geometry": { "type": "LineString", "coordinates": [ [ 56.050683402957311, 54.788061411116971 ], [ 56.05067496644898, 54.788066275629063 ] ] } },
{ "type": "Feature", "properties": { "id": 1, "id1": 49 }, "geometry": { "type": "LineString", "coordinates": [ [ 56.051778640124297, 54.78847187832433 ], [ 56.051349887115435, 54.788309500487664 ] ] } },
{ "type": "Feature", "properties": { "id": 1, "id1": 50 }, "geometry": { "type": "LineString", "coordinates": [ [ 56.051349887115435, 54.788309500487664 ], [ 56.051282395048794, 54.788085733671593 ] ] } },
{ "type": "Feature", "properties": { "id": 1, "id1": 51 }, "geometry": { "type": "LineString", "coordinates": [ [ 56.051282395048794, 54.788085733671593 ], [ 56.051012426782215, 54.788012765963842 ], [ 56.050700275973973, 54.788056546604295 ], [ 56.050683402957311, 54.788061411116971 ] ] } },
{ "type": "Feature", "properties": { "id": 1, "id1": 52 }, "geometry": { "type": "LineString", "coordinates": [ [ 56.051510180773718, 54.789627753767263 ], [ 56.051974188731911, 54.788567317240435 ] ] } },
{ "type": "Feature", "properties": { "id": 1, "id1": 53 }, "geometry": { "type": "LineString", "coordinates": [ [ 56.051974188731911, 54.788567317240435 ], [ 56.051778640663244, 54.788471878528441 ] ] } },
{ "type": "Feature", "properties": { "id": 1, "id1": 54 }, "geometry": { "type": "LineString", "coordinates": [ [ 56.051778640663244, 54.788471878528441 ], [ 56.051778640124297, 54.78847187832433 ] ] } },
{ "type": "Feature", "properties": { "id": 1, "id1": 55 }, "geometry": { "type": "LineString", "coordinates": [ [ 56.051778640124297, 54.78847187832433 ], [ 56.0523196, 54.7881022 ] ] } },
{ "type": "Feature", "properties": { "id": 1, "id1": 56 }, "geometry": { "type": "LineString", "coordinates": [ [ 56.0523196, 54.7881022 ], [ 56.0535003, 54.7880301 ], [ 56.0536125, 54.7879352 ] ] } }
]
}
