{
"type": "FeatureCollection",
"name": "path_new",
"crs": { "type": "name", "properties": { "name": "urn:ogc:def:crs:OGC:1.3:CRS84" } },
"features": [
{ "type": "Feature", "properties": { "fid": 1, "full_id": "w447007938", "osm_id": "447007938", "osm_type": "way", "railway": null, "highway": "path", "name": null, "surface": "ground", "ref": null, "tunnel": null, "bridge": null, "level": null, "sac_scale": null }, "geometry": { "type": "LineString", "coordinates": [ [ 56.0478054, 54.7910767 ], [ 56.0479313, 54.7908934 ], [ 56.0479761, 54.7906996 ], [ 56.0479851, 54.7904697 ], [ 56.048012, 54.7902114 ], [ 56.0480853, 54.789984 ] ] } },
{ "type": "Feature", "properties": { "fid": 1, "full_id": "w447007938", "osm_id": "447007938", "osm_type": "way", "railway": null, "highway": "path", "name": null, "surface": "ground", "ref": null, "tunnel": null, "bridge": null, "level": null, "sac_scale": null }, "geometry": { "type": "LineString", "coordinates": [ [ 56.0480853, 54.789984 ], [ 56.0481061, 54.7899194 ], [ 56.0481285, 54.7898523 ] ] } },
{ "type": "Feature", "properties": { "fid": 2, "full_id": "w1529525527", "osm_id": "1529525527", "osm_type": "way", "railway": null, "highway": "path", "name": null, "surface": null, "ref": null, "tunnel": null, "bridge": null, "level": null, "sac_scale": null }, "geometry": { "type": "LineString", "coordinates": [ [ 56.0501593, 54.7878845 ], [ 56.050234, 54.7877497 ], [ 56.0502567, 54.7876578 ], [ 56.0502242, 54.7875884 ], [ 56.0501331, 54.7874946 ], [ 56.0500486, 54.7874421 ], [ 56.0499791, 54.7874154 ] ] } },
{ "type": "Feature", "properties": { "fid": 3, "full_id": "w447007940", "osm_id": "447007940", "osm_type": "way", "railway": null, "highway": "footway", "name": null, "surface": "asphalt", "ref": null, "tunnel": null, "bridge": null, "level": null, "sac_scale": null }, "geometry": { "type": "LineString", "coordinates": [ [ 56.0473416, 54.789663 ], [ 56.047714, 54.789732 ], [ 56.0481285, 54.7898523 ] ] } },
{ "type": "Feature", "properties": { "fid": 3, "full_id": "w447007940", "osm_id": "447007940", "osm_type": "way", "railway": null, "highway": "footway", "name": null, "surface": "asphalt", "ref": null, "tunnel": null, "bridge": null, "level": null, "sac_scale": null }, "geometry": { "type": "LineString", "coordinates": [ [ 56.0481285, 54.7898523 ], [ 56.0483315, 54.7898812 ] ] } },
{ "type": "Feature", "properties": { "fid": 3, "full_id": "w447007940", "osm_id": "447007940", "osm_type": "way", "railway": null, "highway": "footway", "name": null, "surface": "asphalt", "ref": null, "tunnel": null, "bridge": null, "level": null, "sac_scale": null }, "geometry": { "type": "LineString", "coordinates": [ [ 56.0483315, 54.7898812 ], [ 56.0485126, 54.789907 ] ] } },
{ "type": "Feature", "properties": { "fid": 3, "full_id": "w447007940", "osm_id": "447007940", "osm_type": "way", "railway": null, "highway": "footway", "name": null, "surface": "asphalt", "ref": null, "tunnel": null, "bridge": null, "level": null, "sac_scale": null }, "geometry": { "type": "LineString", "coordinates": [ [ 56.0485126, 54.789907 ], [ 56.0493112, 54.7899554 ] ] } },
{ "type": "Feature", "properties": { "fid": 3, "full_id": "w447007940", "osm_id": "447007940", "osm_type": "way", "railway": null, "highway": "footway", "name": null, "surface": "asphalt", "ref": null, "tunnel": null, "bridge": null, "level": null, "sac_scale": null }, "geometry": { "type": "LineString", "coordinates": [ [ 56.0493112, 54.7899554 ], [ 56.0494886, 54.7900093 ] ] } },
{ "type": "Feature", "properties": { "fid": 3, "full_id": "w447007940", "osm_id": "447007940", "osm_type": "way", "railway": null, "highway": "footway", "name": null, "surface": "asphalt", "ref": null, "tunnel": null, "bridge": null, "level": null, "sac_scale": null }, "geometry": { "type": "LineString", "coordinates": [ [ 56.0494886, 54.7900093 ], [ 56.0494793, 54.7901708 ], [ 56.0494746, 54.790432 ], [ 56.049388, 54.7907425 ] ] } },
{ "type": "Feature", "properties": { "fid": 4, "full_id": "w1529525528", "osm_id": "1529525528", "osm_type": "way", "railway": null, "highway": "path", "name": null, "surface": null, "ref": null, "tunnel": null, "bridge": null, "level": null, "sac_scale": null }, "geometry": { "type": "LineString", "coordinates": [ [ 56.0498396, 54.7878373 ], [ 56.0493265, 54.7878266 ], [ 56.0485102, 54.787774 ], [ 56.0479963, 54.7877515 ], [ 56.0476766, 54.7877757 ] ] } },
{ "type": "Feature", "properties": { "fid": 4, "full_id": "w1529525528", "osm_id": "1529525528", "osm_type": "way", "railway": null, "highway": "path", "name": null, "surface": null, "ref": null, "tunnel": null, "bridge": null, "level": null, "sac_scale": null }, "geometry": { "type": "LineString", "coordinates": [ [ 56.0476766, 54.7877757 ], [ 56.0466108, 54.7876953 ], [ 56.0465262, 54.7876844 ] ] } },
{ "type": "Feature", "properties": { "fid": 4, "full_id": "w1529525528", "osm_id": "1529525528", "osm_type": "way", "railway": null, "highway": "path", "name": null, "surface": null, "ref": null, "tunnel": null, "bridge": null, "level": null, "sac_scale": null }, "geometry": { "type": "LineString", "coordinates": [ [ 56.0465262, 54.7876844 ], [ 56.0464937, 54.7876803 ], [ 56.0463051, 54.7875603 ], [ 56.0462628, 54.7874477 ], [ 56.0462596, 54.7872377 ], [ 56.0462558, 54.787178 ] ] } },
{ "type": "Feature", "properties": { "fid": 4, "full_id": "w1529525528", "osm_id": "1529525528", "osm_type": "way", "railway": null, "highway": "path", "name": null, "surface": null, "ref": null, "tunnel": null, "bridge": null, "level": null, "sac_scale": null }, "geometry": { "type": "LineString", "coordinates": [ [ 56.0462558, 54.787178 ], [ 56.0462465, 54.7870314 ], [ 56.0463051, 54.786827 ], [ 56.0462791, 54.7867182 ], [ 56.0463159, 54.7866055 ] ] } },
{ "type": "Feature", "properties": { "fid": 5, "full_id": "w1529525529", "osm_id": "1529525529", "osm_type": "way", "railway": null, "highway": "path", "name": null, "surface": null, "ref": null, "tunnel": null, "bridge": null, "level": null, "sac_scale": null }, "geometry": { "type": "LineString", "coordinates": [ [ 56.0477539, 54.7873079 ], [ 56.0471637, 54.7872752 ], [ 56.0469881, 54.787279 ], [ 56.0468612, 54.7872508 ], [ 56.0466336, 54.7872058 ], [ 56.0464027, 54.7871777 ], [ 56.0462558, 54.787178 ] ] } },
{ "type": "Feature", "properties": { "fid": 5, "full_id": "w1529525529", "osm_id": "1529525529", "osm_type": "way", "railway": null, "highway": "path", "name": null, "surface": null, "ref": null, "tunnel": null, "bridge": null, "level": null, "sac_scale": null }, "geometry": { "type": "LineString", "coordinates": [ [ 56.0462558, 54.787178 ], [ 56.0459733, 54.7871646 ], [ 56.0457099, 54.7871496 ], [ 56.0454985, 54.7871496 ], [ 56.0451971, 54.7871065 ] ] } },
{ "type": "Feature", "properties": { "fid": 6, "full_id": "w1529525530", "osm_id": "1529525530", "osm_type": "way", "railway": null, "highway": "path", "name": null, "surface": null, "ref": null, "tunnel": null, "bridge": null, "level": null, "sac_scale": null }, "geometry": { "type": "LineString", "coordinates": [ [ 56.0462693, 54.7888542 ], [ 56.0464278, 54.7886776 ], [ 56.0465313, 54.7885241 ], [ 56.0466668, 54.7884175 ], [ 56.0466496, 54.7883209 ], [ 56.0466397, 54.7882569 ], [ 56.0465756, 54.7881688 ], [ 56.0465214, 54.7879855 ], [ 56.0465313, 54.7879101 ], [ 56.0465262, 54.7876844 ] ] } },
{ "type": "Feature", "properties": { "fid": 7, "full_id": "w1529525523", "osm_id": "1529525523", "osm_type": "way", "railway": null, "highway": "path", "name": null, "surface": null, "ref": null, "tunnel": null, "bridge": null, "level": null, "sac_scale": null }, "geometry": { "type": "LineString", "coordinates": [ [ 56.0513123, 54.7879502 ], [ 56.0516719, 54.787916 ], [ 56.0519663, 54.7879192 ], [ 56.0521277, 54.7879764 ], [ 56.0522042, 54.7880466 ], [ 56.0523196, 54.7881022 ] ] } },
{ "type": "Feature", "properties": { "fid": 8, "full_id": "w447187695", "osm_id": "447187695", "osm_type": "way", "railway": null, "highway": "path", "name": null, "surface": "ground", "ref": null, "tunnel": null, "bridge": null, "level": null, "sac_scale": null }, "geometry": { "type": "LineString", "coordinates": [ [ 56.0523196, 54.7881022 ], [ 56.0535003, 54.7880301 ], [ 56.0536125, 54.7879352 ] ] } },
{ "type": "Feature", "properties": { "fid": 9, "full_id": "w1529525524", "osm_id": "1529525524", "osm_type": "way", "railway": null, "highway": "path", "name": null, "surface": null, "ref": null, "tunnel": null, "bridge": null, "level": null, "sac_scale": null }, "geometry": { "type": "LineString", "coordinates": [ [ 56.0505804, 54.7884464 ], [ 56.0507766, 54.7879126 ] ] } },
{ "type": "Feature", "properties": { "fid": 10, "full_id": "w1529525525", "osm_id": "1529525525", "osm_type": "way", "railway": null, "highway": "path", "name": null, "surface": null, "ref": null, "tunnel": null, "bridge": null, "level": null, "sac_scale": null }, "geometry": { "type": "LineString", "coordinates": [ [ 56.0517652, 54.7889908 ], [ 56.0514441, 54.7889582 ], [ 56.0512685, 54.7889113 ], [ 56.0509887, 54.7888438 ], [ 56.0507533, 54.7888373 ] ] } },
{ "type": "Feature", "properties": { "fid": 10, "full_id": "w1529525525", "osm_id": "1529525525", "osm_type": "way", "railway": null, "highway": "path", "name": null, "surface": null, "ref": null, "tunnel": null, "bridge": null, "level": null, "sac_scale": null }, "geometry": { "type": "LineString", "coordinates": [ [ 56.0507533, 54.7888373 ], [ 56.0505367, 54.7888681 ], [ 56.0498829, 54.7888494 ], [ 56.0496999, 54.7888487 ] ] } },
{ "type": "Feature", "properties": { "fid": 11, "full_id": "w1529525526", "osm_id": "1529525526", "osm_type": "way", "railway": null, "highway": "path", "name": null, "surface": null, "ref": null, "tunnel": null, "bridge": null, "level": null, "sac_scale": null }, "geometry": { "type": "LineString", "coordinates": [ [ 56.0496217, 54.789129 ], [ 56.0502342, 54.7891757 ], [ 56.0504163, 54.7892432 ], [ 56.050548, 54.7893151 ] ] } },
{ "type": "Feature", "properties": { "fid": 12, "full_id": "w1529525519", "osm_id": "1529525519", "osm_type": "way", "railway": null, "highway": "path", "name": null, "surface": null, "ref": null, "tunnel": null, "bridge": null, "level": null, "sac_scale": null }, "geometry": { "type": "LineString", "coordinates": [ [ 56.0469463, 54.7901925 ], [ 56.0480853, 54.789984 ] ] } },
{ "type": "Feature", "properties": { "fid": 12, "full_id": "w1529525519", "osm_id": "1529525519", "osm_type": "way", "railway": null, "highway": "path", "name": null, "surface": null, "ref": null, "tunnel": null, "bridge": null, "level": null, "sac_scale": null }, "geometry": { "type": "LineString", "coordinates": [ [ 56.0480853, 54.789984 ], [ 56.0485126, 54.789907 ] ] } },
{ "type": "Feature", "properties": { "fid": 13, "full_id": "w1529525520", "osm_id": "1529525520", "osm_type": "way", "railway": null, "highway": "path", "name": null, "surface": null, "ref": null, "tunnel": null, "bridge": null, "level": null, "sac_scale": null }, "geometry": { "type": "LineString", "coordinates": [ [ 56.0495759, 54.7896762 ], [ 56.0504201, 54.7895503 ], [ 56.0504974, 54.7895305 ] ] } },
{ "type": "Feature", "properties": { "fid": 13, "full_id": "w1529525520", "osm_id": "1529525520", "osm_type": "way", "railway": null, "highway": "path", "name": null, "surface": null, "ref": null, "tunnel": null, "bridge": null, "level": null, "sac_scale": null }, "geometry": { "type": "LineString", "coordinates": [ [ 56.0504974, 54.7895305 ], [ 56.0505188, 54.7894811 ] ] } },
{ "type": "Feature", "properties": { "fid": 13, "full_id": "w1529525520", "osm_id": "1529525520", "osm_type": "way", "railway": null, "highway": "path", "name": null, "surface": null, "ref": null, "tunnel": null, "bridge": null, "level": null, "sac_scale": null }, "geometry": { "type": "LineString", "coordinates": [ [ 56.0505188, 54.7894811 ], [ 56.050548, 54.7893151 ] ] } },
{ "type": "Feature", "properties": { "fid": 13, "full_id": "w1529525520", "osm_id": "1529525520", "osm_type": "way", "railway": null, "highway": "path", "name": null, "surface": null, "ref": null, "tunnel": null, "bridge": null, "level": null, "sac_scale": null }, "geometry": { "type": "LineString", "coordinates": [ [ 56.050548, 54.7893151 ], [ 56.0505532, 54.7892856 ], [ 56.0507463, 54.7888674 ], [ 56.0507533, 54.7888373 ] ] } },
{ "type": "Feature", "properties": { "fid": 13, "full_id": "w1529525520", "osm_id": "1529525520", "osm_type": "way", "railway": null, "highway": "path", "name": null, "surface": null, "ref": null, "tunnel": null, "bridge": null, "level": null, "sac_scale": null }, "geometry": { "type": "LineString", "coordinates": [ [ 56.0507533, 54.7888373 ], [ 56.0508361, 54.7884844 ] ] } },
{ "type": "Feature", "properties": { "fid": 14, "full_id": "w1529525521", "osm_id": "1529525521", "osm_type": "way", "railway": null, "highway": "path", "name": null, "surface": null, "ref": null, "tunnel": null, "bridge": null, "level": null, "sac_scale": null }, "geometry": { "type": "LineString", "coordinates": [ [ 56.0504974, 54.7895305 ], [ 56.0505837, 54.7895194 ] ] } },
{ "type": "Feature", "properties": { "fid": 14, "full_id": "w1529525521", "osm_id": "1529525521", "osm_type": "way", "railway": null, "highway": "path", "name": null, "surface": null, "ref": null, "tunnel": null, "bridge": null, "level": null, "sac_scale": null }, "geometry": { "type": "LineString", "coordinates": [ [ 56.0505837, 54.7895194 ], [ 56.0505188, 54.7894811 ] ] } },
{ "type": "Feature", "properties": { "fid": 15, "full_id": "w1529525522", "osm_id": "1529525522", "osm_type": "way", "railway": null, "highway": "path", "name": null, "surface": null, "ref": null, "tunnel": null, "bridge": null, "level": null, "sac_scale": null }, "geometry": { "type": "LineString", "coordinates": [ [ 56.0505837, 54.7895194 ], [ 56.0510173, 54.7895911 ] ] } },
{ "type": "Feature", "properties": { "fid": 15, "full_id": "w1529525522", "osm_id": "1529525522", "osm_type": "way", "railway": null, "highway": "path", "name": null, "surface": null, "ref": null, "tunnel": null, "bridge": null, "level": null, "sac_scale": null }, "geometry": { "type": "LineString", "coordinates": [ [ 56.0510173, 54.7895911 ], [ 56.0510622, 54.7895986 ], [ 56.0513455, 54.789611 ], [ 56.051442, 54.7895672 ], [ 56.0515011, 54.7895274 ], [ 56.0516096, 54.7893356 ], [ 56.05176, 54.7890357 ], [ 56.0517652, 54.7889908 ] ] } },
{ "type": "Feature", "properties": { "fid": 15, "full_id": "w1529525522", "osm_id": "1529525522", "osm_type": "way", "railway": null, "highway": "path", "name": null, "surface": null, "ref": null, "tunnel": null, "bridge": null, "level": null, "sac_scale": null }, "geometry": { "type": "LineString", "coordinates": [ [ 56.0517652, 54.7889908 ], [ 56.0517723, 54.7889305 ], [ 56.0518644, 54.7886637 ], [ 56.0518672, 54.7885347 ], [ 56.0518106, 54.78845 ] ] } },
{ "type": "Feature", "properties": { "fid": 15, "full_id": "w1529525522", "osm_id": "1529525522", "osm_type": "way", "railway": null, "highway": "path", "name": null, "surface": null, "ref": null, "tunnel": null, "bridge": null, "level": null, "sac_scale": null }, "geometry": { "type": "LineString", "coordinates": [ [ 56.0518106, 54.78845 ], [ 56.0516577, 54.7883437 ], [ 56.0514255, 54.7882327 ], [ 56.0513633, 54.788138 ], [ 56.0512953, 54.7880188 ], [ 56.0513123, 54.7879502 ] ] } },
{ "type": "Feature", "properties": { "fid": 15, "full_id": "w1529525522", "osm_id": "1529525522", "osm_type": "way", "railway": null, "highway": "path", "name": null, "surface": null, "ref": null, "tunnel": null, "bridge": null, "level": null, "sac_scale": null }, "geometry": { "type": "LineString", "coordinates": [ [ 56.0513123, 54.7879502 ], [ 56.050998, 54.7879045 ], [ 56.0507766, 54.7879126 ] ] } },
{ "type": "Feature", "properties": { "fid": 15, "full_id": "w1529525522", "osm_id": "1529525522", "osm_type": "way", "railway": null, "highway": "path", "name": null, "surface": null, "ref": null, "tunnel": null, "bridge": null, "level": null, "sac_scale": null }, "geometry": { "type": "LineString", "coordinates": [ [ 56.0507766, 54.7879126 ], [ 56.0506413, 54.7879176 ], [ 56.0502307, 54.7878964 ], [ 56.0501593, 54.7878845 ] ] } },
{ "type": "Feature", "properties": { "fid": 15, "full_id": "w1529525522", "osm_id": "1529525522", "osm_type": "way", "railway": null, "highway": "path", "name": null, "surface": null, "ref": null, "tunnel": null, "bridge": null, "level": null, "sac_scale": null }, "geometry": { "type": "LineString", "coordinates": [ [ 56.0501593, 54.7878845 ], [ 56.0499759, 54.7878539 ], [ 56.0498396, 54.7878373 ] ] } },
{ "type": "Feature", "properties": { "fid": 16, "full_id": "w447187690", "osm_id": "447187690", "osm_type": "way", "railway": null, "highway": "footway", "name": null, "surface": "asphalt", "ref": null, "tunnel": null, "bridge": null, "level": null, "sac_scale": null }, "geometry": { "type": "LineString", "coordinates": [ [ 56.0478255, 54.7868743 ], [ 56.0477539, 54.7873079 ] ] } },
{ "type": "Feature", "properties": { "fid": 16, "full_id": "w447187690", "osm_id": "447187690", "osm_type": "way", "railway": null, "highway": "footway", "name": null, "surface": "asphalt", "ref": null, "tunnel": null, "bridge": null, "level": null, "sac_scale": null }, "geometry": { "type": "LineString", "coordinates": [ [ 56.0477539, 54.7873079 ], [ 56.0476766, 54.7877757 ] ] } },
{ "type": "Feature", "properties": { "fid": 16, "full_id": "w447187690", "osm_id": "447187690", "osm_type": "way", "railway": null, "highway": "footway", "name": null, "surface": "asphalt", "ref": null, "tunnel": null, "bridge": null, "level": null, "sac_scale": null }, "geometry": { "type": "LineString", "coordinates": [ [ 56.0476766, 54.7877757 ], [ 56.0476165, 54.7881391 ] ] } },
{ "type": "Feature", "properties": { "fid": 16, "full_id": "w447187690", "osm_id": "447187690", "osm_type": "way", "railway": null, "highway": "footway", "name": null, "surface": "asphalt", "ref": null, "tunnel": null, "bridge": null, "level": null, "sac_scale": null }, "geometry": { "type": "LineString", "coordinates": [ [ 56.0476165, 54.7881391 ], [ 56.0474785, 54.7889612 ] ] } },
{ "type": "Feature", "properties": { "fid": 16, "full_id": "w447187690", "osm_id": "447187690", "osm_type": "way", "railway": null, "highway": "footway", "name": null, "surface": "asphalt", "ref": null, "tunnel": null, "bridge": null, "level": null, "sac_scale": null }, "geometry": { "type": "LineString", "coordinates": [ [ 56.0474785, 54.7889612 ], [ 56.047426, 54.7894091 ] ] } },
{ "type": "Feature", "properties": { "fid": 16, "full_id": "w447187690", "osm_id": "447187690", "osm_type": "way", "railway": null, "highway": "footway", "name": null, "surface": "asphalt", "ref": null, "tunnel": null, "bridge": null, "level": null, "sac_scale": null }, "geometry": { "type": "LineString", "coordinates": [ [ 56.047426, 54.7894091 ], [ 56.0474094, 54.7895509 ], [ 56.0473416, 54.789663 ] ] } },
{ "type": "Feature", "properties": { "fid": 16, "full_id": "w447187690", "osm_id": "447187690", "osm_type": "way", "railway": null, "highway": "footway", "name": null, "surface": "asphalt", "ref": null, "tunnel": null, "bridge": null, "level": null, "sac_scale": null }, "geometry": { "type": "LineString", "coordinates": [ [ 56.0473416, 54.789663 ], [ 56.0470984, 54.790065 ], [ 56.0469463, 54.7901925 ] ] } },
{ "type": "Feature", "properties": { "fid": 16, "full_id": "w447187690", "osm_id": "447187690", "osm_type": "way", "railway": null, "highway": "footway", "name": null, "surface": "asphalt", "ref": null, "tunnel": null, "bridge": null, "level": null, "sac_scale": null }, "geometry": { "type": "LineString", "coordinates": [ [ 56.0469463, 54.7901925 ], [ 56.0466975, 54.7903001 ] ] } },
{ "type": "Feature", "properties": { "fid": 16, "full_id": "w447187690", "osm_id": "447187690", "osm_type": "way", "railway": null, "highway": "footway", "name": null, "surface": "asphalt", "ref": null, "tunnel": null, "bridge": null, "level": null, "sac_scale": null }, "geometry": { "type": "LineString", "coordinates": [ [ 56.0466975, 54.7903001 ], [ 56.0464409, 54.790799 ] ] } },
{ "type": "Feature", "properties": { "fid": 17, "full_id": "w447187693", "osm_id": "447187693", "osm_type": "way", "railway": null, "highway": "path", "name": null, "surface": "ground", "ref": null, "tunnel": null, "bridge": null, "level": null, "sac_scale": null }, "geometry": { "type": "LineString", "coordinates": [ [ 56.050009, 54.7873251 ], [ 56.0500292, 54.7872032 ] ] } },
{ "type": "Feature", "properties": { "fid": 18, "full_id": "w446140493", "osm_id": "446140493", "osm_type": "way", "railway": null, "highway": "footway", "name": null, "surface": "asphalt", "ref": null, "tunnel": null, "bridge": null, "level": null, "sac_scale": null }, "geometry": { "type": "LineString", "coordinates": [ [ 56.0450734, 54.7887101 ], [ 56.0456885, 54.7887779 ], [ 56.0462194, 54.7888476 ] ] } },
{ "type": "Feature", "properties": { "fid": 18, "full_id": "w446140493", "osm_id": "446140493", "osm_type": "way", "railway": null, "highway": "footway", "name": null, "surface": "asphalt", "ref": null, "tunnel": null, "bridge": null, "level": null, "sac_scale": null }, "geometry": { "type": "LineString", "coordinates": [ [ 56.0462194, 54.7888476 ], [ 56.0462693, 54.7888542 ] ] } },
{ "type": "Feature", "properties": { "fid": 18, "full_id": "w446140493", "osm_id": "446140493", "osm_type": "way", "railway": null, "highway": "footway", "name": null, "surface": "asphalt", "ref": null, "tunnel": null, "bridge": null, "level": null, "sac_scale": null }, "geometry": { "type": "LineString", "coordinates": [ [ 56.0462693, 54.7888542 ], [ 56.046325, 54.7888615 ] ] } },
{ "type": "Feature", "properties": { "fid": 18, "full_id": "w446140493", "osm_id": "446140493", "osm_type": "way", "railway": null, "highway": "footway", "name": null, "surface": "asphalt", "ref": null, "tunnel": null, "bridge": null, "level": null, "sac_scale": null }, "geometry": { "type": "LineString", "coordinates": [ [ 56.046325, 54.7888615 ], [ 56.0465386, 54.7888895 ], [ 56.0471744, 54.7889492 ], [ 56.0474785, 54.7889612 ] ] } },
{ "type": "Feature", "properties": { "fid": 18, "full_id": "w446140493", "osm_id": "446140493", "osm_type": "way", "railway": null, "highway": "footway", "name": null, "surface": "asphalt", "ref": null, "tunnel": null, "bridge": null, "level": null, "sac_scale": null }, "geometry": { "type": "LineString", "coordinates": [ [ 56.0474785, 54.7889612 ], [ 56.0480383, 54.789005 ], [ 56.0484212, 54.7890061 ] ] } },
{ "type": "Feature", "properties": { "fid": 18, "full_id": "w446140493", "osm_id": "446140493", "osm_type": "way", "railway": null, "highway": "footway", "name": null, "surface": "asphalt", "ref": null, "tunnel": null, "bridge": null, "level": null, "sac_scale": null }, "geometry": { "type": "LineString", "coordinates": [ [ 56.0484212, 54.7890061 ], [ 56.048833, 54.7890072 ], [ 56.0496217, 54.789129 ] ] } },
{ "type": "Feature", "properties": { "fid": 18, "full_id": "w446140493", "osm_id": "446140493", "osm_type": "way", "railway": null, "highway": "footway", "name": null, "surface": "asphalt", "ref": null, "tunnel": null, "bridge": null, "level": null, "sac_scale": null }, "geometry": { "type": "LineString", "coordinates": [ [ 56.0496217, 54.789129 ], [ 56.0496939, 54.7888879 ], [ 56.0496999, 54.7888487 ] ] } },
{ "type": "Feature", "properties": { "fid": 18, "full_id": "w446140493", "osm_id": "446140493", "osm_type": "way", "railway": null, "highway": "footway", "name": null, "surface": "asphalt", "ref": null, "tunnel": null, "bridge": null, "level": null, "sac_scale": null }, "geometry": { "type": "LineString", "coordinates": [ [ 56.0496999, 54.7888487 ], [ 56.0497799, 54.7883276 ] ] } },
{ "type": "Feature", "properties": { "fid": 18, "full_id": "w446140493", "osm_id": "446140493", "osm_type": "way", "railway": null, "highway": "footway", "name": null, "surface": "asphalt", "ref": null, "tunnel": null, "bridge": null, "level": null, "sac_scale": null }, "geometry": { "type": "LineString", "coordinates": [ [ 56.0497799, 54.7883276 ], [ 56.0497868, 54.7879968 ], [ 56.0498396, 54.7878373 ] ] } },
{ "type": "Feature", "properties": { "fid": 18, "full_id": "w446140493", "osm_id": "446140493", "osm_type": "way", "railway": null, "highway": "footway", "name": null, "surface": "asphalt", "ref": null, "tunnel": null, "bridge": null, "level": null, "sac_scale": null }, "geometry": { "type": "LineString", "coordinates": [ [ 56.0498396, 54.7878373 ], [ 56.0499791, 54.7874154 ] ] } },
{ "type": "Feature", "properties": { "fid": 18, "full_id": "w446140493", "osm_id": "446140493", "osm_type": "way", "railway": null, "highway": "footway", "name": null, "surface": "asphalt", "ref": null, "tunnel": null, "bridge": null, "level": null, "sac_scale": null }, "geometry": { "type": "LineString", "coordinates": [ [ 56.0499791, 54.7874154 ], [ 56.050009, 54.7873251 ] ] } },
{ "type": "Feature", "properties": { "fid": 19, "full_id": "w1529525517", "osm_id": "1529525517", "osm_type": "way", "railway": null, "highway": "footway", "name": null, "surface": null, "ref": null, "tunnel": null, "bridge": null, "level": null, "sac_scale": null }, "geometry": { "type": "LineString", "coordinates": [ [ 56.0483315, 54.7898812 ], [ 56.0483871, 54.7894888 ] ] } },
{ "type": "Feature", "properties": { "fid": 19, "full_id": "w1529525517", "osm_id": "1529525517", "osm_type": "way", "railway": null, "highway": "footway", "name": null, "surface": null, "ref": null, "tunnel": null, "bridge": null, "level": null, "sac_scale": null }, "geometry": { "type": "LineString", "coordinates": [ [ 56.0483871, 54.7894888 ], [ 56.0484212, 54.7890061 ] ] } },
{ "type": "Feature", "properties": { "fid": 20, "full_id": "w1529525518", "osm_id": "1529525518", "osm_type": "way", "railway": null, "highway": "footway", "name": null, "surface": null, "ref": null, "tunnel": null, "bridge": null, "level": null, "sac_scale": null }, "geometry": { "type": "LineString", "coordinates": [ [ 56.0495759, 54.7896762 ], [ 56.0491621, 54.7895964 ], [ 56.0487345, 54.7895279 ], [ 56.0485097, 54.789523 ], [ 56.0483871, 54.7894888 ] ] } },
{ "type": "Feature", "properties": { "fid": 20, "full_id": "w1529525518", "osm_id": "1529525518", "osm_type": "way", "railway": null, "highway": "footway", "name": null, "surface": null, "ref": null, "tunnel": null, "bridge": null, "level": null, "sac_scale": null }, "geometry": { "type": "LineString", "coordinates": [ [ 56.0483871, 54.7894888 ], [ 56.0478738, 54.7894528 ], [ 56.047426, 54.7894091 ] ] } },
{ "type": "Feature", "properties": { "fid": 21, "full_id": "w446140498", "osm_id": "446140498", "osm_type": "way", "railway": null, "highway": "path", "name": null, "surface": "ground", "ref": null, "tunnel": null, "bridge": null, "level": null, "sac_scale": null }, "geometry": { "type": "LineString", "coordinates": [ [ 56.0450734, 54.7887101 ], [ 56.044879, 54.7887103 ], [ 56.0446221, 54.7887534 ], [ 56.0443935, 54.788929 ] ] } },
{ "type": "Feature", "properties": { "fid": 22, "full_id": "w447007945", "osm_id": "447007945", "osm_type": "way", "railway": null, "highway": "path", "name": null, "surface": "ground", "ref": null, "tunnel": null, "bridge": null, "level": null, "sac_scale": null }, "geometry": { "type": "LineString", "coordinates": [ [ 56.0460291, 54.7894509 ], [ 56.0462651, 54.7894663 ], [ 56.0465387, 54.7895344 ], [ 56.0466836, 54.7896024 ], [ 56.0468767, 54.7896612 ], [ 56.0473416, 54.789663 ] ] } },
{ "type": "Feature", "properties": { "fid": 23, "full_id": "w447007946", "osm_id": "447007946", "osm_type": "way", "railway": null, "highway": "path", "name": null, "surface": "ground", "ref": null, "tunnel": null, "bridge": null, "level": null, "sac_scale": null }, "geometry": { "type": "LineString", "coordinates": [ [ 56.0461525, 54.7901839 ], [ 56.0459486, 54.79032 ], [ 56.045718, 54.7905736 ], [ 56.0456697, 54.7907159 ], [ 56.0454731, 54.7908302 ] ] } },
{ "type": "Feature", "properties": { "fid": 24, "full_id": "w447007948", "osm_id": "447007948", "osm_type": "way", "railway": null, "highway": "footway", "name": null, "surface": "asphalt", "ref": null, "tunnel": null, "bridge": null, "level": null, "sac_scale": null }, "geometry": { "type": "LineString", "coordinates": [ [ 56.0497799, 54.7883276 ], [ 56.0505804, 54.7884464 ] ] } },
{ "type": "Feature", "properties": { "fid": 24, "full_id": "w447007948", "osm_id": "447007948", "osm_type": "way", "railway": null, "highway": "footway", "name": null, "surface": "asphalt", "ref": null, "tunnel": null, "bridge": null, "level": null, "sac_scale": null }, "geometry": { "type": "LineString", "coordinates": [ [ 56.0505804, 54.7884464 ], [ 56.0508361, 54.7884844 ] ] } },
{ "type": "Feature", "properties": { "fid": 24, "full_id": "w447007948", "osm_id": "447007948", "osm_type": "way", "railway": null, "highway": "footway", "name": null, "surface": "asphalt", "ref": null, "tunnel": null, "bridge": null, "level": null, "sac_scale": null }, "geometry": { "type": "LineString", "coordinates": [ [ 56.0508361, 54.7884844 ], [ 56.0515954, 54.7885971 ], [ 56.0518106, 54.78845 ] ] } },
{ "type": "Feature", "properties": { "fid": 24, "full_id": "w447007948", "osm_id": "447007948", "osm_type": "way", "railway": null, "highway": "footway", "name": null, "surface": "asphalt", "ref": null, "tunnel": null, "bridge": null, "level": null, "sac_scale": null }, "geometry": { "type": "LineString", "coordinates": [ [ 56.0518106, 54.78845 ], [ 56.0523196, 54.7881022 ] ] } },
{ "type": "Feature", "properties": { "fid": 25, "full_id": "w447007941", "osm_id": "447007941", "osm_type": "way", "railway": null, "highway": "footway", "name": null, "surface": null, "ref": null, "tunnel": null, "bridge": null, "level": null, "sac_scale": null }, "geometry": { "type": "LineString", "coordinates": [ [ 56.0494886, 54.7900093 ], [ 56.049554, 54.7897239 ] ] } },
{ "type": "Feature", "properties": { "fid": 25, "full_id": "w447007941", "osm_id": "447007941", "osm_type": "way", "railway": null, "highway": "footway", "name": null, "surface": null, "ref": null, "tunnel": null, "bridge": null, "level": null, "sac_scale": null }, "geometry": { "type": "LineString", "coordinates": [ [ 56.049554, 54.7897239 ], [ 56.0495759, 54.7896762 ] ] } },
{ "type": "Feature", "properties": { "fid": 25, "full_id": "w447007941", "osm_id": "447007941", "osm_type": "way", "railway": null, "highway": "footway", "name": null, "surface": null, "ref": null, "tunnel": null, "bridge": null, "level": null, "sac_scale": null }, "geometry": { "type": "LineString", "coordinates": [ [ 56.0495759, 54.7896762 ], [ 56.0496194, 54.7895812 ], [ 56.049582, 54.7894331 ], [ 56.0496217, 54.789129 ] ] } },
{ "type": "Feature", "properties": { "fid": 26, "full_id": "w447007942", "osm_id": "447007942", "osm_type": "way", "railway": null, "highway": "footway", "name": null, "surface": "asphalt", "ref": null, "tunnel": null, "bridge": null, "level": null, "sac_scale": null }, "geometry": { "type": "LineString", "coordinates": [ [ 56.0493112, 54.7899554 ], [ 56.0493672, 54.7898235 ], [ 56.049554, 54.7897239 ] ] } },
{ "type": "Feature", "properties": { "fid": 27, "full_id": "w447007943", "osm_id": "447007943", "osm_type": "way", "railway": null, "highway": "footway", "name": null, "surface": "asphalt", "ref": null, "tunnel": null, "bridge": null, "level": null, "sac_scale": null }, "geometry": { "type": "LineString", "coordinates": [ [ 56.0476165, 54.7881391 ], [ 56.0487489, 54.7882167 ], [ 56.0494302, 54.7882971 ], [ 56.0497799, 54.7883276 ] ] } },
{ "type": "Feature", "properties": { "fid": 28, "full_id": "w447007944", "osm_id": "447007944", "osm_type": "way", "railway": null, "highway": "path", "name": null, "surface": "ground", "ref": null, "tunnel": null, "bridge": null, "level": null, "sac_scale": null }, "geometry": { "type": "LineString", "coordinates": [ [ 56.0466975, 54.7903001 ], [ 56.0464744, 54.7902241 ], [ 56.0461525, 54.7901839 ] ] } },
{ "type": "Feature", "properties": { "fid": 28, "full_id": "w447007944", "osm_id": "447007944", "osm_type": "way", "railway": null, "highway": "path", "name": null, "surface": "ground", "ref": null, "tunnel": null, "bridge": null, "level": null, "sac_scale": null }, "geometry": { "type": "LineString", "coordinates": [ [ 56.0461525, 54.7901839 ], [ 56.046072, 54.7901004 ], [ 56.0460023, 54.7898993 ], [ 56.0459004, 54.7897447 ], [ 56.0459218, 54.789587 ], [ 56.0460291, 54.7894509 ] ] } },
{ "type": "Feature", "properties": { "fid": 28, "full_id": "w447007944", "osm_id": "447007944", "osm_type": "way", "railway": null, "highway": "path", "name": null, "surface": "ground", "ref": null, "tunnel": null, "bridge": null, "level": null, "sac_scale": null }, "geometry": { "type": "LineString", "coordinates": [ [ 56.0460291, 54.7894509 ], [ 56.0461203, 54.789355 ], [ 56.0461632, 54.789222 ], [ 56.0462846, 54.7889883 ], [ 56.046325, 54.7888615 ] ] } },
{ "type": "Feature", "properties": { "fid": 28, "full_id": "w447007944", "osm_id": "447007944", "osm_type": "way", "railway": null, "highway": "path", "name": null, "surface": "ground", "ref": null, "tunnel": null, "bridge": null, "level": null, "sac_scale": null }, "geometry": { "type": "LineString", "coordinates": [ [ 56.046325, 54.7888615 ], [ 56.046269304104605, 54.788854168816798 ] ] } },
{ "type": "Feature", "properties": { "fid": 28, "full_id": "w447007944", "osm_id": "447007944", "osm_type": "way", "railway": null, "highway": "path", "name": null, "surface": "ground", "ref": null, "tunnel": null, "bridge": null, "level": null, "sac_scale": null }, "geometry": { "type": "LineString", "coordinates": [ [ 56.046269304104605, 54.788854168816798 ], [ 56.0462194, 54.7888476 ] ] } },
{ "type": "Feature", "properties": { "fid": 29, "full_id": "w1529525531", "osm_id": "1529525531", "osm_type": "way", "railway": null, "highway": "path", "name": null, "surface": null, "ref": null, "tunnel": null, "bridge": null, "level": null, "sac_scale": null }, "geometry": { "type": "LineString", "coordinates": [ [ 56.0510173, 54.7895911 ], [ 56.0510344, 54.789791 ], [ 56.0510541, 54.7898678 ], [ 56.0510147, 54.7899489 ] ] } }
]
}
